IRIDIUM 166             
1 43570U 18061B   24131.70178684  .00000167  00000+0  52656-4 0  9998
2 43570  86.4009  17.4773 0001979  79.5457 280.5962 14.34219348303399
IRIDIUM 158             
1 43571U 18061C   24132.15845374  .00000468  00000+0  15990-3 0  9999
2 43571  86.4007  17.2956 0002075  89.5949 270.5485 14.34220084303437
IRIDIUM 165             
1 43572U 18061D   24132.18381891  .00000955  00000+0  33401-3 0  9990
2 43572  86.4009  17.3167 0001981  86.6621 273.4801 14.34224237303455
IRIDIUM 155             
1 43573U 18061E   24131.72715757  .00000433  00000+0  14768-3 0  9998
2 43573  86.4006  17.4146 0002120  80.4943 279.6492 14.34220104303358
IRIDIUM 154             
1 43574U 18061F   24132.40581006  .00001858  00000+0  65606-3 0  9992
2 43574  86.4009  17.2269 0002437  85.2463 274.9011 14.34226019303500
IRIDIUM 163             
1 43575U 18061G   24132.38678407  .00003109  00000+0  11022-2 0  9995
2 43575  86.4005  17.1743 0002223  82.1775 277.9673 14.34232533303479
IRIDIUM 156             
1 43576U 18061H   24132.43118072  .00001961  00000+0  69302-3 0  9998
2 43576  86.4003  17.1622 0002075  86.5457 273.5977 14.34227083303466
IRIDIUM 164             
1 43577U 18061J   24131.78424102  .00000626  00000+0  21647-3 0  9997
2 43577  86.4009  17.4606 0002207  93.3906 266.7542 14.34222871303428
